STARLINK-31236          
1 58841U 24017R   26068.61950779  .00002543  00000+0  98051-4 0  9996
2 58841  53.1612 204.7704 0001583  54.8308 305.2841 15.30170772120048
NUSAT-48 (HENRIETTA LE*)
1 60498U 24149AG  26068.80506098  .00012988  00000+0  45212-3 0  9999
2 60498  97.3923 150.8264 0002754 263.3026  96.7901 15.29812597 86946
